COSMOS 2433 (720)       
1 32275U 07052A   25170.17914149 -.00000039  00000+0  00000+0 0  9995
2 32275  65.7759 328.1272 0002180 197.5810 162.4141  2.13104036137322
COSMOS 2432 (719)       
1 32276U 07052B   25169.33028811 -.00000035  00000+0  00000+0 0  9990
2 32276  65.7919 328.2763 0007989 332.6100  41.2626  2.13103100137337
COSMOS 2434 (721)       
1 32393U 07065A   25170.55905317  .00000102  00000+0  00000+0 0  9999
2 32393  64.3158 204.1492 0000613 331.6952 211.1278  2.13101331136041
COSMOS 2436 (723)       
1 32395U 07065C   25170.16793203  .00000098  00000+0  00000+0 0  9991
2 32395  64.3244 204.2308 0016619 353.4057  23.2205  2.13100185135998
COSMOS 2456 (730)       
1 36111U 09070A   25170.34846535 -.00000020  00000+0  00000+0 0  9992
2 36111  64.7982  83.3703 0004626 326.5728 210.6270  2.13103659120691
COSMOS 2457 (733)       
1 36112U 09070B   25169.69663775 -.00000013  00000+0  00000+0 0  9994
2 36112  64.7830  83.2437 0002816 139.3876  28.5234  2.13101159120688
COSMOS 2460 (732)       
1 36402U 10007C   25170.18156959 -.00000040  00000+0  00000+0 0  9995
2 36402  65.6252 326.7272 0001838 104.6643  72.1183  2.13106159118994
COSMOS 2476 (744)       
1 37867U 11064A   25169.46743128 -.00000008  00000+0  00000+0 0  9998
2 37867  65.0633  85.1702 0022520 238.9826 252.1478  2.13101485106010
COSMOS 2477 (745)       
1 37868U 11064B   25170.03629584 -.00000014  00000+0  00000+0 0  9990
2 37868  65.0703  85.2269 0019658 240.3081 147.2328  2.13103009106029
COSMOS 2475 (743)       
1 37869U 11064C   25170.27553400 -.00000016  00000+0  00000+0 0  9992
2 37869  65.0775  85.2370 0025110 254.2462 273.5674  2.13101835106032
COSMOS 2485 (747)       
1 39155U 13019A   25170.17394661 -.00000014  00000+0  00000+0 0  9993
2 39155  65.2177  85.8060 0022871 234.6327 125.1712  2.13104545 94543
COSMOS 2492 (754)       
1 39620U 14012A   25170.13128855 -.00000040  00000+0  00000+0 0  9999
2 39620  65.5045 326.2524 0010736 325.2756  34.6556  2.13103128 87508
COSMOS 2500 (755)       
1 40001U 14032A   25169.36728342 -.00000036  00000+0  00000+0 0  9991
2 40001  65.4410 326.0544 0006936 185.7201 174.2740  2.13105949 85708
COSMOS 2501 (702K)      
1 40315U 14075A   25169.62472114  .00000095  00000+0  00000+0 0  9992
2 40315  63.6156 202.9592 0021765 211.6165 148.3205  2.13101365 82100
COSMOS 2514 (751)       
1 41330U 16008A   25170.54688588 -.00000043  00000+0  00000+0 0  9999
2 41330  65.2322 325.4308 0010605 199.3409 160.6194  2.13102549 72895
COSMOS 2522 (752)       
1 42939U 17055A   25170.38577560  .00000100  00000+0  00000+0 0  9990
2 42939  64.0772 204.2349 0010491 240.5802 119.3856  2.13101833 60242
COSMOS 2527 (756)       
1 43508U 18053A   25170.34590609 -.00000015  00000+0  00000+0 0  9993
2 43508  65.3764  86.0287 0007356 238.8389 121.1058  2.13102145 54541
COSMOS 2529 (757)       
1 43687U 18086A   25170.44389229  .00000099  00000+0  00000+0 0  9993
2 43687  64.2929 204.8446 0011752 257.6882 102.2514  2.13102000 51554
COSMOS 2534 (758)       
1 44299U 19030A   25170.35908685  .00000099  00000+0  00000+0 0  9996
2 44299  64.3664 204.8354 0013336 276.9230 152.3140  2.13102171 47195
COSMOS 2544 (759)       
1 44850U 19088A   25170.29029524 -.00000015  00000+0  00000+0 0  9990
2 44850  65.3636  85.8606 0013142 259.7616 100.1076  2.13101958 42980
COSMOS 2545 (760)       
1 45358U 20018A   25170.01744228 -.00000042  00000+0  00000+0 0  9994
2 45358  64.5698 325.1597 0008184 233.5130 126.4128  2.13102443 40924
COSMOS 2547 (705K)      
1 46805U 20075A   25170.20379132  .00000098  00000+0  00000+0 0  9994
2 46805  64.5965 204.5914 0009054 240.5148 119.4654  2.13100214 36178
COSMOS 2557 (706K)      
1 52984U 22075A   25170.37045938 -.00000044  00000+0  00000+0 0  9995
2 52984  64.5061 327.2442 0010570 277.1685  82.7131  2.13102052 22984
COSMOS 2559 (707K)      
1 54031U 22130A   25168.31214699 -.00000036  00000+0  00000+0 0  9996
2 54031  64.4796 327.4117 0012000 177.2225 182.7867  2.13101490 20917
COSMOS 2564 (761)       
1 54377U 22161A   25170.03406449  .00000096  00000+0  00000+0 0  9996
2 54377  64.7381 204.7678 0011774 224.5816 135.3941  2.13102006 19897
COSMOS 2569 (703K)      
1 57517U 23114A   25170.04860306 -.00000014  00000+0  00000+0 0  9992
2 57517  65.0955  84.8862 0011048 297.8993  62.0081  2.13103615 14525
COSMOS 2584 (704K)      
1 63130U 25042A   25170.40431957 -.00000018  00000+0  00000+0 0  9992
2 63130  64.8773  85.1547 0006140 226.0458 133.9212  2.13103819  2313
